name,city,iata,icao,latitude,longitude,altitude_m,state
Brisbane Archerfield Airport,Brisbane,ACF,YBAF,-27.5702991486,153.007995605,19.0,
Northern Peninsula Airport,Amberley,ABM,YBAM,-10.9508,142.459,10.0,
Alice Springs Airport,Alice Springs,ASP,YBAS,-23.806699752807617,133.90199279785156,545.0,
Brisbane International Airport,Brisbane,BNE,YBBN,-27.384199142456055,153.11700439453125,4.0,
Gold Coast Airport,Coolangatta,OOL,YBCG,-28.1644001007,153.505004883,6.0,
Cairns International Airport,Cairns,CNS,YBCS,-16.885799408,145.755004883,3.0,
Charleville Airport,Charlieville,CTL,YBCV,-26.4132995605,146.261993408,306.0,
Mount Isa Airport,Mount Isa,ISA,YBMA,-20.663900375399997,139.488998413,342.0,
Sunshine Coast Airport,Maroochydore,MCY,YBMC,-26.6033,153.091003,5.0,
Mackay Airport,Mackay,MKY,YBMK,-21.171699523900003,149.179992676,6.0,
Proserpine Whitsunday Coast Airport,Prosserpine,PPP,YBPN,-20.4950008392,148.552001953,25.0,
Rockhampton Airport,Rockhampton,ROK,YBRK,-23.3819007874,150.475006104,10.0,
Townsville Airport,Townsville,TSV,YBTL,-19.252500534057617,146.76499938964844,5.0,
Weipa Airport,Weipa,WEI,YBWP,-12.6786003113,141.925003052,19.0,
Avalon Airport,Avalon,AVV,YMAV,-38.039398,144.468994,11.0,
Albury Airport,Albury,ABX,YMAY,-36.06779861450195,146.95799255371094,164.0,
Melbourne Essendon Airport,Melbourne,MEB,YMEN,-37.7281,144.901993,86.0,
RAAF Base East Sale,East Sale,,YMES,-38.0988998413,147.149002075,7.0,
Hobart International Airport,Hobart,HBA,YMHB,-42.836101532,147.509994507,4.0,
Launceston Airport,Launceston,LST,YMLT,-41.54529953,147.214004517,171.0,
Melbourne Moorabbin Airport,Melbourne,MBW,YMMB,-37.975799560546875,145.1020050048828,15.0,
Melbourne International Airport,Melbourne,MEL,YMML,-37.673302,144.843002,132.0,
"RAAF Williams, Point Cook Base",Point Cook,,YMPC,-37.932201,144.753006,4.0,
Adelaide International Airport,Adelaide,ADL,YPAD,-34.945,138.531006,6.0,
RAAF Base Edinburgh,Edinburgh,,YPED,-34.70249938964844,138.62100219726562,20.0,
Perth Jandakot Airport,Perth,JAD,YPJT,-32.09749984741211,115.88099670410156,30.0,
Karratha Airport,Karratha,KTA,YPKA,-20.712200164799995,116.773002625,9.0,
Kalgoorlie Boulder Airport,Kalgoorlie,KGI,YPKG,-30.789400100699996,121.461997986,367.0,
Kununurra Airport,Kununurra,KNX,YPKU,-15.7781000137,128.707992554,44.0,
Learmonth Airport,Learmonth,LEA,YPLM,-22.235599517799997,114.088996887,6.0,
Port Hedland International Airport,Port Hedland,PHE,YPPD,-20.3777999878,118.625999451,10.0,
Adelaide Parafield Airport,Adelaide,,YPPF,-34.793300628699996,138.632995605,17.0,
Perth International Airport,Perth,PER,YPPH,-31.94029998779297,115.96700286865234,20.0,
Woomera Airfield,Woomera,UMR,YPWR,-31.14419937133789,136.81700134277344,167.0,
Sydney Bankstown Airport,Sydney,BWU,YSBK,-33.924400329589844,150.98800659179688,9.0,
Canberra International Airport,Canberra,CBR,YSCB,-35.30690002441406,149.19500732421875,575.0,
Coffs Harbour Airport,Coff's Harbour,CFS,YSCH,-30.3206005096,153.115997314,5.0,
Camden Airport,Camden,CDU,YSCN,-34.04029846191406,150.68699645996094,70.0,
Dubbo City Regional Airport,Dubbo,DBO,YSDU,-32.2167015076,148.574996948,285.0,
RAAF Base Richmond,Richmond,XRH,YSRI,-33.600601,150.781006,20.0,
Sydney Kingsford Smith International Airport,Sydney,SYD,YSSY,-33.94609832763672,151.177001953125,6.0,
Tamworth Airport,Tamworth,TMW,YSTW,-31.0839004517,150.847000122,407.0,
Wagga Wagga City Airport,Wagga Wagga,WGA,YSWG,-35.1652984619,147.466003418,221.0,
Emerald Airport,Emerald,EMD,YEML,-23.5674991608,148.179000854,190.0,
Darwin International Airport,Darwin,DRW,YPDN,-12.41469955444336,130.8769989013672,31.0,
Ayers Rock Connellan Airport,Uluru,AYQ,YAYE,-25.1861,130.975998,496.0,
Kingscote Airport,Kingscote,KGC,YKSC,-35.71390151977539,137.52099609375,7.0,
Hervey Bay Airport,Hervey Bay,HVB,YHBA,-25.3188991547,152.880004883,18.0,
Armidale Airport,Armidale,ARM,YARM,-30.528099060099997,151.617004395,1084.0,
Blackall Airport,Blackall,BKQ,YBCK,-24.427799224900003,145.429000854,283.0,
Bundaberg Airport,Bundaberg,BDB,YBUD,-24.903900146499996,152.319000244,33.0,
Hayman Island Heliport,Hayman Island,,YHYN,-20.0599,148.8834,2.0,
Thangool Airport,Biloela,THG,YTNG,-24.493900299072266,150.5760040283203,196.0,
Ballina Byron Gateway Airport,Ballina Byron Bay,BNK,YBNA,-28.8339004517,153.56199646,2.0,
Broome International Airport,Broome,BME,YBRM,-17.944700241088867,122.23200225830078,17.0,
Newcastle Airport,Newcastle,NTL,YWLM,-32.79499816894531,151.83399963378906,9.0,
Albany Airport,Albany,ALH,YABA,-34.94329833984375,117.80899810791016,71.0,
Argyle Airport,Argyle,GYL,YARG,-16.6369,128.451004,159.0,
Aurukun Airport,Aurukun,AUU,YAUR,-13.354067,141.72065,9.0,
Barcaldine Airport,Barcaldine,BCI,YBAR,-23.5652999878,145.307006836,268.0,
Badu Island Airport,Badu Island,BDD,YBAU,-10.1499996185,142.1734,4.0,
Birdsville Airport,Birdsville,BVI,YBDV,-25.897499084472656,139.34800720214844,48.0,
Broken Hill Airport,Broken Hill,BHQ,YBHI,-32.0013999939,141.472000122,292.0,
Hamilton Island Airport,Hamilton Island,HTI,YBHM,-20.3581008911,148.95199585,5.0,
Bedourie Airport,Bedourie,BEU,YBIE,-24.346099853515625,139.4600067138672,91.0,
Bourke Airport,Bourke,BRK,YBKE,-30.03919982910156,145.95199584960938,107.0,
Burketown Airport,Burketown,BUC,YBKT,-17.748600006103516,139.53399658203125,6.0,
Boigu Airport,Boigu,GIC,YBOI,-9.23278045654,142.218002319,7.0,
Oakey Airport,Oakey,OKY,YBOK,-27.411399841308594,151.73500061035156,407.0,
Boulia Airport,Boulia,BQL,YBOU,-22.913299560546875,139.89999389648438,165.0,
Bathurst Airport,Bathurst,BHS,YBTH,-33.4094009399,149.651992798,742.0,
Blackwater Airport,Blackwater,BLT,YBTR,-23.603099822998047,148.8070068359375,200.0,
Carnarvon Airport,Carnarvon,CVQ,YCAR,-24.880211,113.67174,4.0,
Cobar Airport,Cobar,CAZ,YCBA,-31.538299560546875,145.79400634765625,221.0,
Coober Pedy Airport,Coober Pedy,CPD,YCBP,-29.040000915527344,134.7209930419922,226.0,
Coconut Island Airport,Coconut Island,CNC,YCCT,-10.050000190734863,143.07000732421875,1.0,
Cloncurry Airport,Cloncurry,CNJ,YCCY,-20.6686000824,140.503997803,188.0,
Ceduna Airport,Ceduna,CED,YCDU,-32.13059997558594,133.7100067138672,23.0,
Cooktown Airport,Cooktown,CTN,YCKN,-15.444700241088867,145.1840057373047,8.0,
Cunnamulla Airport,Cunnamulla,CMA,YCMU,-28.030000686645508,145.6219940185547,192.0,
Coonamble Airport,Coonamble,CNB,YCNM,-30.983299255371097,148.37600708007812,184.0,
Coen Airport,Coen,CUQ,YCOE,-13.761133,143.113311,162.0,
Cooma Snowy Mountains Airport,Cooma,OOM,YCOM,-36.3005981445,148.973999023,941.0,
Doomadgee Airport,Doomadgee,DMD,YDMG,-17.9403,138.822006,47.0,
Darnley Island Airport,Darnley Island,NLF,YDNI,-9.583330154418944,143.76699829101562,0.0,
Devonport Airport,Devonport,DPO,YDPO,-41.1697006226,146.429992676,10.0,
Elcho Island Airport,Elcho Island,ELC,YELD,-12.019399642899998,135.570999146,31.0,
Esperance Airport,Esperance,EPR,YESP,-33.684399,121.822998,143.0,
Flinders Island Airport,Flinders Island,FLS,YFLI,-40.0917015076,147.992996216,3.0,
Geraldton Airport,Geraldton,GET,YGEL,-28.796101,114.707001,37.0,
Gladstone Airport,Gladstone,GLT,YGLA,-23.869699,151.223007,20.0,
Groote Eylandt Airport,Groote Eylandt,GTE,YGTE,-13.9750003815,136.460006714,16.0,
Griffith Airport,Griffith,GFF,YGTH,-34.2508010864,146.067001343,134.0,
Horn Island Airport,Horn Island,HID,YHID,-10.586400032,142.289993286,13.0,
Hooker Creek Airport,Hooker Creek,HOK,YHOO,-18.3367004395,130.638000488,98.0,
Mount Hotham Airport,Mount Hotham,MHU,YHOT,-37.0475006104,147.333999634,1298.0,
Hughenden Airport,Hughenden,HGD,YHUG,-20.815000534057617,144.22500610351562,318.0,
Julia Creek Airport,Julia Creek,JCK,YJLC,-20.66830062866211,141.72300720214844,123.0,
Kalbarri Airport,Kalbarri,KAX,YKBR,-27.692813,114.259169,48.0,
King Island Airport,King Island,KNS,YKII,-39.877498626708984,143.8780059814453,40.0,
Kalkgurung Airport,Kalkgurung,KFG,YKKG,-17.431900024414062,130.80799865722656,197.0,
Karumba Airport,Karumba,KRB,YKMB,-17.45669937133789,140.8300018310547,2.0,
Kowanyama Airport,Kowanyama,KWM,YKOW,-15.485600471496582,141.75100708007812,11.0,
Kubin Airport,Kubin,KUG,YKUB,-10.2250003815,142.218002319,5.0,
Leonora Airport,Leonora,LNO,YLEO,-28.87809944152832,121.31500244140624,371.0,
Lake Evella Airport,Lake Evella,LEL,YLEV,-12.498900413513184,135.80599975585938,78.0,
Lord Howe Island Airport,Lord Howe Island,LDH,YLHI,-31.5382995605,159.07699585,2.0,
Lockhart River Airport,Lockhart River,IRG,YLHR,-12.7869,143.304993,23.0,
Lismore Airport,Lismore,LSY,YLIS,-28.8302993774,153.259994507,11.0,
Lightning Ridge Airport,Lightning Ridge,LHG,YLRD,-29.45669937133789,147.98399353027344,165.0,
Longreach Airport,Longreach,LRE,YLRE,-23.4342002869,144.279998779,191.0,
Leinster Airport,Leinster,LER,YLST,-27.843299865722656,120.7030029296875,497.0,
Laverton Airport,Laverton,LVO,YLTN,-28.61359977722168,122.42400360107422,466.0,
Mabuiag Island Airport,Mabuiag Island,UBB,YMAA,-9.949999809265137,142.18299865722656,0.0,
Meekatharra Airport,Meekatharra,MKR,YMEK,-26.6117000579834,118.5479965209961,522.0,
Merimbula Airport,Merimbula,MIM,YMER,-36.9085998535,149.901000977,2.0,
Milingimbi Airport,Milingimbi,MGT,YMGB,-12.0944004059,134.893997192,16.0,
Maningrida Airport,Maningrida,MNG,YMGD,-12.0560998917,134.23399353,37.0,
McArthur River Mine Airport,McArthur River Mine,MCV,YMHU,-16.4424991608,136.083999634,40.0,
Mildura Airport,Mildura,MQL,YMIA,-34.229198455799995,142.085998535,51.0,
Mount Magnet Airport,Mount Magnet,MMG,YMOG,-28.116100311279297,117.84200286865234,413.0,
Moree Airport,Moree,MRZ,YMOR,-29.498899459799997,149.845001221,214.0,
Moranbah Airport,Moranbah,MOV,YMRB,-22.057800293,148.07699585,235.0,
Moruya Airport,Moruya,MYA,YMRY,-35.8978004456,150.143997192,4.0,
Mount Gambier Airport,Mount Gambier,MGB,YMTG,-37.745601654052734,140.78500366210938,65.0,
Mornington Island Airport,Mornington Island,ONG,YMTI,-16.662500381469727,139.17799377441406,10.0,
Murray Island Airport,Murray Island,MYI,YMUI,-9.91666984558,144.054992676,91.0,
Maryborough Airport,Maryborough,MBH,YMYB,-25.5133,152.714996,12.0,
Narrandera Airport,Narrandera,NRA,YNAR,-34.7022018433,146.511993408,144.0,
Narrabri Airport,Narrabri,NAA,YNBR,-30.3192005157,149.82699585,240.0,
Normanton Airport,Normanton,NTN,YNTN,-17.68409,141.069664,22.0,
Newman Airport,Newman,ZNE,YNWN,-23.4178009033,119.803001404,525.0,
Olympic Dam Airport,Olympic Dam,OLP,YOLD,-30.485000610399997,136.876998901,105.0,
Port Augusta Airport,Argyle,PUG,YPAG,-32.506900787353516,137.7169952392578,17.0,
Palm Island Airport,Palm Island,PMK,YPAM,-18.755300521850582,146.58099365234375,9.0,
Paraburdoo Airport,Paraburdoo,PBO,YPBO,-23.1711006165,117.745002747,429.0,
Gove Airport,Gove,GOV,YPGV,-12.269399642899998,136.817993164,59.0,
Parkes Airport,Parkes,PKE,YPKS,-33.131401062,148.238998413,326.0,
Port Lincoln Airport,Port Lincoln,PLO,YPLC,-34.6053009033,135.880004883,11.0,
Pormpuraaw Airport,Pormpuraaw,EDR,YPMP,-14.896451,141.60908,3.0,
Port Macquarie Airport,Port Macquarie,PQQ,YPMQ,-31.4358005524,152.863006592,4.0,
Portland Airport,Portland,PTJ,YPOD,-38.31809997558594,141.4709930419922,81.0,
Quilpie Airport,Quilpie,ULP,YQLP,-26.612199783325195,144.2530059814453,200.0,
Ramingining Airport,Ramingining,RAM,YRNG,-12.356399536132812,134.8979949951172,63.0,
Roma Airport,Roma,RMA,YROM,-26.545000076300003,148.774993896,315.0,
St George Airport,St George,SGO,YSGE,-28.049699783325195,148.59500122070312,200.0,
Shark Bay Airport,Shark Bay,MJK,YSHK,-25.8938999176,113.577003479,34.0,
Saibai Island Airport,Saibai Island,SBR,YSII,-9.378330230710002,142.625,5.0,
Strahan Airport,Strahan,SRN,YSRN,-42.154998779296875,145.29200744628906,6.0,
Thargomindah Airport,Thargomindah,XTG,YTGM,-27.986400604248047,143.81100463867188,132.0,
Tennant Creek Airport,Tennant Creek,TCA,YTNK,-19.6343994140625,134.18299865722656,377.0,
Victoria River Downs Airport,Victoria River Downs,VCD,YVRD,-16.402124404907227,131.00497436523438,27.0,
Warraber Island Airport,Sue Islet,SYU,YWBS,-10.20829963684082,142.8249969482422,1.0,
Windorah Airport,Windorah,WNR,YWDH,-25.41309928894043,142.66700744628906,138.0,
Whyalla Airport,Whyalla,WYA,YWHA,-33.05889892578125,137.51400756835938,12.0,
Wiluna Airport,Wiluna,WUN,YWLU,-26.629199981689453,120.22100067138672,503.0,
Wollongong Airport,Wollongong,WOL,YWOL,-34.561100006103516,150.78900146484375,9.0,
Winton Airport,Winton,WIN,YWTN,-22.36359977722168,143.08599853515625,194.0,
Wynyard Airport,Burnie,BWT,YWYY,-40.9989013671875,145.7310028076172,19.0,
Yorke Island Airport,Yorke Island,OKR,YYKI,-9.752801,143.405673,3.0,
Yam Island Airport,Yam Island,XMY,YYMI,-9.90110969543457,142.7760009765625,0.0,
Mount Keith Airport,Mount Keith,WME,YMNE,-27.286399841308594,120.55500030517578,546.0,
Grafton Airport,Grafton,GFN,YGFN,-29.7593994140625,153.02999877929688,34.0,
Orange Airport,Orange,OAG,YORG,-33.3816986084,149.132995605,949.0,
Taree Airport,Taree,TRO,YTRE,-31.8885993958,152.514007568,12.0,
Goulburn Airport,Goulburn,GUL,YGLB,-34.810298919677734,149.7259979248047,653.0,
Cessnock Airport,Cessnock,CES,YCNK,-32.787498,151.341995,64.0,
Scone Airport,Scone,NSO,YSCO,-32.037200927734375,150.83200073242188,227.0,
Mudgee Airport,Mudgee,DGE,YMDG,-32.5625,149.610992432,471.0,
Maitland Airport,Maitland,MTL,YMND,-32.701265,151.492912,26.0,
Oceanside Municipal Airport,Fraser Island,OCN,KOKB,33.217300415039,-117.35399627686,9.0,
Bungle Bungle Airport,Bungle Bungle,,YBUU,-17.545299530029297,128.3070068359375,0.0,
Whitsunday Island Airport,Airlie Beach,WSY,YWHI,-20.27611,148.755,12.0,
RAAF Base Amberley,Amberley,,YAMB,-27.6406,152.712006,28.0,
Tindal Airport,Katherine,KTR,YPTN,-14.521100044250488,132.3780059814453,135.0,
"RAAF Williams, Laverton Base",Laverton,,YLVT,-37.86360168457031,144.74600219726562,5.0,
Nowra Airport,Nowra,NOA,YSNW,-34.94889831542969,150.53700256347656,122.0,
RAAF Base Pearce,Perth,,YPEA,-31.667800903320312,116.01499938964844,45.0,
Bendigo Airport,Bendigo,BXG,YBDG,-36.7393989563,144.330001831,215.0,
Toowoomba Airport,Toowoomba,TWB,YTWB,-27.542801,151.916,636.0,
Ballera Airport,Ballera,BBL,YLLE,-27.405633,141.809458,117.0,
Gatton Campus Airport,Gatton,,YGAT,-27.5604060653,152.340459824,0.0,
Barrow Island Airport,Barrow Island,BWB,YBWX,-20.86440086364746,115.40599822998048,8.0,
Derby Airport,Derby,DRB,YDBY,-17.3700008392334,123.66100311279295,7.0,
Walgett Airport,Walgett,WGE,YWLG,-30.032800674438477,148.12600708007812,134.0,
Bathurst Island Airport,Bathurst Island,BRT,YBTI,-11.769200325012209,130.6199951171875,20.0,
Dunk Island Airport,Dunk Island,DKI,YDKI,-17.9416999817,146.13999939,2.0,
Lizard Island Airport,Lizard Island,LZR,YLZI,-14.673273,145.454571,21.0,
Hamilton Airport,Hamilton,HLT,YHML,-37.64889907836914,142.06500244140625,245.0,
Halls Creek Airport,Halls Creek,HCQ,YHLC,-18.23390007019043,127.66999816894533,410.0,
Fitzroy Crossing Airport,Fitzroy Crossing,FIZ,YFTZ,-18.181900024414062,125.55899810791016,112.0,
Ravensthorpe Airport,Ravensthorpe,RVT,YNRV,-33.7971992493,120.208000183,60.0,
Geelong Airport,Geelong,GEX,YGLG,-38.224998474121094,144.33299255371094,13.0,
Penneshaw Airport,Penneshaw,PEA,YPSH,-35.7558462874,137.962875366,0.0,
Redcliffe Airport,Rothwell,,YRED,-27.20669937133789,153.0679931640625,1.0,
Phillip Island Airport,Phillip Island,,YPID,-38.52330017089844,145.32699584960938,4.0,
Cooinda Airport,Cooinda,CDA,YCOO,-12.903300285339355,132.53199768066406,4.0,
Jabiru Airport,Jabiru,JAB,YJAB,-12.658300399780272,132.89300537109375,26.0,
Telfer Airport,Telfer,TEF,YTEF,-21.71500015258789,122.22899627685548,296.0,
Renmark Airport,Renmark,RMK,YREN,-34.1963996887207,140.6739959716797,35.0,
Leigh Creek Airport,Leigh Creek,LGH,YLEC,-30.59830093383789,138.42599487304688,261.0,
Warburton Airport,Warburton Community,,YWBR,-26.12829971313477,126.58300018310548,457.0,
Cunderdin Airport,Cunderdin,,YCUN,-31.62220001220703,117.21700286865234,215.0,
Rottnest Island Airport,Rottnest Island,RTS,YRTI,-32.006699,115.540001,4.0,
Forrest Airport,Forrest,FOS,YFRT,-30.83810043334961,128.11500549316406,156.0,
Ballarat Airport,Ballarat,,YBLT,-37.51169967651367,143.79100036621094,437.0,
Mallacoota Airport,Mallacoota,XMC,YMCO,-37.59830093383789,149.72000122070312,9.0,
Yuendumu Airport,Yuendumu ,YUE,YYND,-22.254199981689453,131.78199768066406,672.0,
Yarram Airport,Yarram,,YYRM,-38.56669998168945,146.7550048828125,5.0,
Yalata Mission Airport,Yalata,KYI,YYTA,-31.470600128173828,131.8249969482422,0.0,
Wyndham Airport,Wyndham,WYN,YWYM,-15.51140022277832,128.1529998779297,4.0,
Beverley Airport,Mine Site,,YBEE,-30.18670082092285,139.55799865722656,35.0,
Great Keppel Is Airport,Great Keppel Island,GKL,YGKL,-23.1833000183,150.942001343,6.0,
Roper Bar Airport,Roper Bar,RPB,YRRB,-14.734814,134.525485,28.0,
Mount Garnet Airport,Mount Garnet,,YMRT,-17.700000762939453,145.14999389648438,200.0,
Innisfail Airport,Innisfail,IFL,YIFL,-17.55940055847168,146.01199340820312,14.0,
Moomba Airport,Moomba,MOO,YOOM,-28.09939956665039,140.19700622558594,44.0,
Onslow Airport,Onslow,ONS,YOLW,-21.668300628662,115.1129989624,2.0,
Theodore Airport,Theodore,TDR,YTDR,-24.99329948425293,150.09300231933594,52.0,
Chinchilla Airport,Chinchilla,CCL,YCCA,-26.774999618530273,150.61700439453125,313.0,
Shute Harbour Airport,Shute Harbour,JHQ,YSHR,-20.277221,148.755556,4.0,
Shepparton Airport,Shepparton,SHT,YSHT,-36.42890167236328,145.39300537109375,114.0,
Temora Airport,Temora,TEM,YTEM,-34.4213981628418,147.51199340820312,281.0,
Gayndah Airport,Gayndah,GAH,YGAY,-25.61440086364746,151.61900329589844,112.0,
Wilcannia Airport,Wilcannia,WIO,YWCA,-31.52639961242676,143.375,76.0,
Ivanhoe Airport,Ivanhoe,,YIVO,-32.88330078125,144.30999755859375,101.0,
Menindee Airport,Menindee,,YMED,-32.36669921875,142.40499877929688,0.0,
Pooncarie Airport,Pooncarie,,YPCE,-33.36669921875,142.58799743652344,15.0,
Tilpa Airport,Tilpa,,YTLP,-30.933300018310547,144.41700744628906,0.0,
Lake Macquarie Airport,Lake Macquarie,BEO,YPEC,-33.0667,151.647995,1.0,
Brampton Island Airport,Brampton Island,BMP,YBPI,-20.803300857543945,149.27000427246094,3.0,
Busselton Regional Airport,Brusselton,BQB,YBLN,-33.6884231567,115.401596069,17.0,
Inverell Airport,Inverell,IVR,YIVL,-29.888299942,151.143997192,813.0,
Glen Innes Airport,Glen Innes,GLI,YGLI,-29.674999237060547,151.68899536132812,1046.0,
Fortescue - Dave Forrest Aerodrome,Cloudbreak,KFE,YFDF,-22.290754,119.437143,474.0,
Solomon Airport,Solomon,SLJ,YSOL,-22.2554,117.7627,619.0,
Coonabarabran Airport,Coonabarabran,COJ,YCBB,-31.332500457763672,149.26699829101562,645.0,
Warnervale Airport,Warnervale Airport,,YWVA,-33.240278,151.429722,8.0,
Bairnsdale Airport,Bairnsdale,BSJ,YBNS,-37.88750076293945,147.5679931640625,50.0,
Prominent Hill Airport,Prominent Hill,PXH,YPMH,-29.716,135.5244,227.0,
Cowra Airport,Chatsworth,CWT,YCWR,-33.84469985961914,148.6490020751953,294.0,
Coral Bay Airport,Coral Bay,,YCOY,-23.1299991607666,113.7770004272461,2.0,
Lilydale Airport,Lilydale,,YLIL,-37.69169998168945,145.36700439453125,23.0,
Toowoomba Wellcamp Airport,Toowoomba,WTB,YBWW,-27.558332,151.793335,460.0,
Clermont Airport,Clermont,CMQ,YCMT,-22.773099899291992,147.62100219726562,277.0,
Warrnambool Airport,Warrnambool,WMB,YWBL,-38.2952995300293,142.44700622558594,74.0,
Richmond Airport,Richmond,RCM,YRMD,-20.701900482177734,143.11500549316406,206.0,
RAAF Base Curtin,Derby,DCN,YCIN,-17.5813999176,123.82800293,91.0,
Bunbury Airport,Bunbury,BUY,YBUN,-33.378299713134766,115.677001953125,16.0,
Atherton Airport,Atherton,,YATN,-17.2616996765,145.51499939,747.0,
Kadina Airport,Kadina,,YKDI,-33.97669982910156,137.66000366210938,13.0,
Coondewanna Airport,Coondewanna,CJF,YCWA,-22.96669960022,118.81300354004,701.0,
Borroloola Airport,Borroloola,BOX,YBRL,-16.075300216674805,136.302001953125,17.0,
Port Keats Airport,Wadeye,PKT,YPKT,-14.25,129.5290069580078,28.0,
Garden Point Airport,Pirlangimpi,GPN,YGPT,-11.40250015258789,130.4219970703125,27.0,
Flinders Island Airport,Elliston,,YFLS,-33.730989,134.501,0.0,
Murray Bridge Airport,Murray Bridge,,YMBD,-35.06669998168945,139.2270050048828,17.0,
Horsham Airport,Horsham,HSM,YHSM,-36.669700622558594,142.17300415039062,136.0,
Swan Hill Airport,Swan Hill,SWH,YSWH,-35.37580108642578,143.5330047607422,71.0,
Dulkaninna Airport,Dulkaninna,DLK,YDLK,-29.0132999420166,138.4810028076172,0.0,
William Creek Airport,William Creek,,YWMC,-28.906700134277344,136.3419952392578,28.0,
Taroom Airport,Taroom,XTO,YTAM,-25.801700592041016,149.89999389648438,73.0,
Alpha Airport,Alpha,ABH,YAPH,-23.646099,146.584,383.0,
Ararat Airport,,ARY,YARA,-37.30939865112305,142.98899841308594,307.0,
Benalla Airport,,BLN,YBLA,-36.55189895629883,146.0070037841797,173.0,
Balranald Airport,,BZD,YBRN,-34.623600006103516,143.5780029296875,64.0,
Brewarrina Airport,,BWQ,YBRW,-29.973899841308594,146.81700134277344,126.0,
Cleve Airport,,CVC,YCEE,-33.70970153808594,136.5050048828125,180.0,
Corowa Airport,,CWW,YCOR,-35.99470138549805,146.35699462890625,143.0,
Corryong Airport,,CYG,YCRG,-36.18280029296875,147.88800048828125,294.0,
Cootamundra Airport,,CMD,YCTM,-34.6239013671875,148.0279998779297,338.0,
Dirranbandi Airport,,DRN,YDBI,-28.591699600219727,148.2169952392578,173.0,
Deniliquin Airport,Deniliquin,DNQ,YDLQ,-35.5593986511,144.945999146,96.0,
Dysart Airport,,DYA,YDYS,-22.62220001220703,148.36399841308594,204.0,
Echuca Airport,,ECH,YECH,-36.15719985961914,144.76199340820312,98.0,
Forbes Airport,Forbes,FRB,YFBS,-33.363602,147.934998,232.0,
Gunnedah Airport,,GUH,YGDH,-30.96109962463379,150.25100708007812,263.0,
Hay Airport,,HXX,YHAY,-34.53139877319336,144.8300018310547,93.0,
Hopetoun Airport,,HTU,YHPN,-35.715301513671875,142.36000061035156,78.0,
Kerang Airport,,KRA,YKER,-35.751399993896484,143.93899536132812,77.0,
Kempsey Airport,,KPS,YKMP,-31.074399948120117,152.77000427246094,16.0,
Kingaroy Airport,,KGY,YKRY,-26.580799102783203,151.84100341796875,455.0,
Latrobe Valley Airport,Morwell,TGN,YLTV,-38.207199,146.470001,55.0,
Mareeba Airport,,MRG,YMBA,-17.06920051574707,145.41900634765625,475.0,
Ngukurr Airport,,RPM,YNGU,-14.722800254821776,134.7469940185547,14.0,
Narromine Airport,,QRM,YNRM,-32.214698791503906,148.22500610351562,238.0,
Port Pirie Airport,,PPI,YPIR,-33.23889923095703,137.9949951171875,12.0,
Smithton Airport,,SIO,YSMI,-40.834999084472656,145.08399963378906,9.0,
Snake Bay Airport,,SNB,YSNB,-11.422800064086914,130.6540069580078,53.0,
Stawell Airport,,SWC,YSWL,-37.07170104980469,142.74099731445312,246.0,
Tibooburra Airport,,TYB,YTIB,-29.451099395751953,142.05799865722656,178.0,
Tumut Airport,,TUM,YTMU,-35.26279830932617,148.24099731445312,268.0,
Wangaratta Airport,,WGT,YWGT,-36.41579818725586,146.3070068359375,154.0,
Warracknabeal Airport,,WKB,YWKB,-36.32109832763672,142.41900634765625,121.0,
Warren Airport,,QRR,YWRN,-31.733299255371097,147.80299377441406,204.0,
West Sale Airport,Sale,SXE,YWSL,-38.090827,146.965335,22.0,
West Wyalong Airport,West Wyalong,WWY,YWWL,-33.9371986389,147.190994263,262.0,
Young Airport,,NGA,YYNG,-34.25559997558594,148.2480010986328,386.0,
Hermannsburg Airport,Hermannsburg,HMG,YHMB,-23.93000030517578,132.80499267578125,181.0,
Mount Davies Airport,Pipalyatjara,,YMDV,-26.16670036315918,129.13299560546875,0.0,
Areyonga Airport,Areyonga,,YARN,-24.066699981689453,132.26699829101562,0.0,
Mount Allan Airport,Yuelamu,,YMNA,-22.274999618530273,132.2169952392578,0.0,
Everard Park Airport,Mimili,,YEVP,-27.016700744628903,132.7169952392578,0.0,
Warrabri Airport,Ali-Curung,,YWBI,-21.0,134.39700317382812,117.0,
Ampilatwatja Airport,Ampilatwatja,,YAMJ,-21.655000686645508,135.22999572753906,0.0,
Kings Creek Airport,Petermann,KCS,YKCS,-24.42329978942871,131.8350067138672,187.0,
Harts Range Airport,Harts Range,,YHTS,-22.98500061035156,134.91799926757812,0.0,
Elliott Airport,Elliott,,YELL,-17.527429580688477,133.52989196777344,0.0,
Papunya Airport,Papunya,,YPAY,-23.24670028686523,131.9029998779297,189.0,
Fregon Airport,Fregon,,YFRG,-26.774999618530273,132.01699829101562,161.0,
Mount Liebig Airport,Mt Liebig,,YLBG,-23.24329948425293,131.25999450683594,0.0,
Goondiwindi Airport,Goondiwindi,GOO,YGDI,-28.521400451660156,150.32000732421875,218.0,
Docker River Airport,Docker River,DKV,YDVR,-24.86000061035156,129.07000732421875,180.0,
Ti Tree Airport,Ti Tree,,YTIT,-22.13170051574707,133.4199981689453,0.0,
Kintore Airport,Kintore,,YKNT,-23.26499938964844,129.38699340820312,0.0,
Utopia Airport,Utopia,,YUTP,-22.05500030517578,134.7899932861328,0.0,
Nyrripi Airport,Nyirripi,,YNRR,-22.645299911499023,130.56500244140625,0.0,
Amata Airport,Amata,AMT,YAMT,-26.108299255371097,131.20700073242188,212.0,
Erldunda Airport,Erldunda,EDD,YERL,-25.205799102800004,133.253997803,0.0,
Finke Airport,Finke,FIK,YFNE,-25.5946998596,134.582992554,0.0,
Nypari Airport,Angatja Homeland,,YNYP,-26.200000762939453,130.23300170898438,0.0,
Bowen Airport,Bowen,ZBO,YBWN,-20.018299102783203,148.21499633789062,2.0,
Boolgeeda,Brockman,OCM,YBGD,-22.54,117.275,570.0,
Coonawarra Airport,Coonawarra,,YCNQ,-37.28329849243164,140.8000030517578,0.0,
Naracoorte Airport,Naracoorte,NAC,YNRC,-36.98529815673828,140.72500610351562,52.0,
Caloundra Airport,Caloundra,CUD,YCDR,-26.799999237060547,153.10000610351562,4.0,
Croker Island Airport,Croker Island,CKI,YCKI,-11.164999961853027,132.48300170898438,5.0,
The Granites Airport,The Granites,,YTGT,-20.54829978942871,130.3470001220703,0.0,
Barimunya Airport,Barimunya,BYP,YBRY,-22.673900604248,119.16600036621,635.0,
Noonkanbah Airport,Noonkanbah,NKB,YNKA,-18.4946994781,124.851997375,0.0,
Umuwa Airport,Umuwa,,YUMU,-26.4867000579834,132.0399932861328,0.0,
Mount Weld Airport,Laverton,,YMNW,-28.771699905395508,122.44000244140624,0.0,
Kidston Airport,Kidston,,YKID,-18.8700008392334,144.17300415039062,151.0,
Mangalore Airport,Mangalore,,YMNG,-36.888301849365234,145.1840057373047,142.0,
